[
    {
        "Altitude(m)": 566228.7591470821,
        "Argument of Periapsis(deg)": 0.019868973332140504,
        "Eccentricity": 0.0,
        "Inclination(deg)": 53.0,
        "Latitude(deg)": -39.27458172067033,
        "Longitude(deg)": -14.58441946939712,
        "Mean Anomaly(deg)": -127.9070213972673,
        "RAAN(deg)": 229.97043010558406,
        "Satellite Name": "Starlink Shell 1 1024",
        "Satellite Number": 1024,
        "Semi-Major Axis(m)": 6931778.249405717,
        "Time(s)": 570
    },
    {
        "Altitude(m)": 566391.1881600666,
        "Argument of Periapsis(deg)": 0.02021755181165174,
        "Eccentricity": 0.0,
        "Inclination(deg)": 53.0,
        "Latitude(deg)": -39.66850835842032,
        "Longitude(deg)": -13.99703924790853,
        "Mean Anomaly(deg)": -127.28019019371061,
        "RAAN(deg)": 229.96991133550657,
        "Satellite Name": "Starlink Shell 1 1024",
        "Satellite Number": 1024,
        "Semi-Major Axis(m)": 6931778.249405717,
        "Time(s)": 580
    },
    {
        "Altitude(m)": 566552.2899580209,
        "Argument of Periapsis(deg)": 0.020566130291162974,
        "Eccentricity": 0.0,
        "Inclination(deg)": 53.0,
        "Latitude(deg)": -40.05895794956309,
        "Longitude(deg)": -13.402531314423115,
        "Mean Anomaly(deg)": -126.65335899015378,
        "RAAN(deg)": 229.96939256542913,
        "Satellite Name": "Starlink Shell 1 1024",
        "Satellite Number": 1024,
        "Semi-Major Axis(m)": 6931778.249405717,
        "Time(s)": 590
    },
    {
        "Altitude(m)": 566712.0018225615,
        "Argument of Periapsis(deg)": 0.020914708770674213,
        "Eccentricity": 0.0,
        "Inclination(deg)": 53.0,
        "Latitude(deg)": -40.44584392986249,
        "Longitude(deg)": -12.800779262656118,
        "Mean Anomaly(deg)": -126.02652778659711,
        "RAAN(deg)": 229.96887379535164,
        "Satellite Name": "Starlink Shell 1 1024",
        "Satellite Number": 1024,
        "Semi-Major Axis(m)": 6931778.249405717,
        "Time(s)": 600
    },
    {
        "Altitude(m)": 566870.2615088483,
        "Argument of Periapsis(deg)": 0.021263287250185448,
        "Eccentricity": 0.0,
        "Inclination(deg)": 53.0,
        "Latitude(deg)": -40.829077923086636,
        "Longitude(deg)": -12.191667841283662,
        "Mean Anomaly(deg)": -125.3996965830404,
        "RAAN(deg)": 229.96835502527415,
        "Satellite Name": "Starlink Shell 1 1024",
        "Satellite Number": 1024,
        "Semi-Major Axis(m)": 6931778.249405717,
        "Time(s)": 610
    },
    {
        "Altitude(m)": 567027.0072731733,
        "Argument of Periapsis(deg)": 0.021611865729696686,
        "Eccentricity": 0.0,
        "Inclination(deg)": 53.0,
        "Latitude(deg)": -41.2085697306608,
        "Longitude(deg)": -11.575082695826701,
        "Mean Anomaly(deg)": -124.77286537948362,
        "RAAN(deg)": 229.9678362551967,
        "Satellite Name": "Starlink Shell 1 1024",
        "Satellite Number": 1024,
        "Semi-Major Axis(m)": 6931778.249405717,
        "Time(s)": 620
    },
    {
        "Altitude(m)": 567182.1779003203,
        "Argument of Periapsis(deg)": 0.02196044420920792,
        "Eccentricity": 0.0,
        "Inclination(deg)": 53.0,
        "Latitude(deg)": -41.5842273246068,
        "Longitude(deg)": -10.950911807933274,
        "Mean Anomaly(deg)": -124.14603417592693,
        "RAAN(deg)": 229.9673174851192,
        "Satellite Name": "Starlink Shell 1 1024",
        "Satellite Number": 1024,
        "Semi-Major Axis(m)": 6931778.249405717,
        "Time(s)": 630
    },
    {
        "Altitude(m)": 567335.7127306487,
        "Argument of Periapsis(deg)": 0.02230902268871916,
        "Eccentricity": 0.0,
        "Inclination(deg)": 53.0,
        "Latitude(deg)": -41.955956844075914,
        "Longitude(deg)": -10.319044430097023,
        "Mean Anomaly(deg)": -123.51920297237025,
        "RAAN(deg)": 229.96679871504173,
        "Satellite Name": "Starlink Shell 1 1024",
        "Satellite Number": 1024,
        "Semi-Major Axis(m)": 6931778.249405717,
        "Time(s)": 640
    },
    {
        "Altitude(m)": 567487.5516869304,
        "Argument of Periapsis(deg)": 0.022657601168230398,
        "Eccentricity": 0.0,
        "Inclination(deg)": 53.0,
        "Latitude(deg)": -42.32366259581249,
        "Longitude(deg)": -9.679372559144692,
        "Mean Anomaly(deg)": -122.89237176881353,
        "RAAN(deg)": 229.9662799449643,
        "Satellite Name": "Starlink Shell 1 1024",
        "Satellite Number": 1024,
        "Semi-Major Axis(m)": 6931778.249405717,
        "Time(s)": 650
    },
    {
        "Altitude(m)": 567637.6353009177,
        "Argument of Periapsis(deg)": 0.023006179647741636,
        "Eccentricity": 0.0,
        "Inclination(deg)": 53.0,
        "Latitude(deg)": -42.68724705888632,
        "Longitude(deg)": -9.031790746421379,
        "Mean Anomaly(deg)": -122.26554056525683,
        "RAAN(deg)": 229.96576117488678,
        "Satellite Name": "Starlink Shell 1 1024",
        "Satellite Number": 1024,
        "Semi-Major Axis(m)": 6931778.249405717,
        "Time(s)": 660
    },
    {
        "Altitude(m)": 567785.9047396014,
        "Argument of Periapsis(deg)": 0.023354758127252868,
        "Eccentricity": 0.0,
        "Inclination(deg)": 53.0,
        "Latitude(deg)": -43.04661089405544,
        "Longitude(deg)": -8.376195925929538,
        "Mean Anomaly(deg)": -121.6387093617001,
        "RAAN(deg)": 229.9652424048093,
        "Satellite Name": "Starlink Shell 1 1024",
        "Satellite Number": 1024,
        "Semi-Major Axis(m)": 6931778.249405717,
        "Time(s)": 670
    },
    {
        "Altitude(m)": 567932.3018312058,
        "Argument of Periapsis(deg)": 0.023703336606764106,
        "Eccentricity": 0.0,
        "Inclination(deg)": 53.0,
        "Latitude(deg)": -43.40165295813219,
        "Longitude(deg)": -7.712488773505808,
        "Mean Anomaly(deg)": -121.01187815814345,
        "RAAN(deg)": 229.96472363473188,
        "Satellite Name": "Starlink Shell 1 1024",
        "Satellite Number": 1024,
        "Semi-Major Axis(m)": 6931778.249405717,
        "Time(s)": 680
    },
    {
        "Altitude(m)": 568076.769090831,
        "Argument of Periapsis(deg)": 0.024051915086275345,
        "Eccentricity": 0.0,
        "Inclination(deg)": 53.0,
        "Latitude(deg)": -43.75227032373365,
        "Longitude(deg)": -7.040573571393607,
        "Mean Anomaly(deg)": -120.38504695458677,
        "RAAN(deg)": 229.9642048646544,
        "Satellite Name": "Starlink Shell 1 1024",
        "Satellite Number": 1024,
        "Semi-Major Axis(m)": 6931778.249405717,
        "Time(s)": 690
    },
    {
        "Altitude(m)": 568219.2497458188,
        "Argument of Periapsis(deg)": 0.024400493565786583,
        "Eccentricity": 0.0,
        "Inclination(deg)": 53.0,
        "Latitude(deg)": -44.09835830481083,
        "Longitude(deg)": -6.360358091091761,
        "Mean Anomaly(deg)": -119.7582157510299,
        "RAAN(deg)": 229.9636860945769,
        "Satellite Name": "Starlink Shell 1 1024",
        "Satellite Number": 1024,
        "Semi-Major Axis(m)": 6931778.249405717,
        "Time(s)": 700
    },
    {
        "Altitude(m)": 568359.6877607744,
        "Argument of Periapsis(deg)": 0.024749072045297815,
        "Eccentricity": 0.0,
        "Inclination(deg)": 53.0,
        "Latitude(deg)": -44.439810488364955,
        "Longitude(deg)": -5.671755007233882,
        "Mean Anomaly(deg)": -119.13138454747326,
        "RAAN(deg)": 229.96316732449944,
        "Satellite Name": "Starlink Shell 1 1024",
        "Satellite Number": 1024,
        "Semi-Major Axis(m)": 6931778.249405717,
        "Time(s)": 710
    },
    {
        "Altitude(m)": 568498.0278622169,
        "Argument of Periapsis(deg)": 0.025097650524809053,
        "Eccentricity": 0.0,
        "Inclination(deg)": 53.0,
        "Latitude(deg)": -44.776518772756006,
        "Longitude(deg)": -4.974681816492048,
        "Mean Anomaly(deg)": -118.50455334391647,
        "RAAN(deg)": 229.96264855442197,
        "Satellite Name": "Starlink Shell 1 1024",
        "Satellite Number": 1024,
        "Semi-Major Axis(m)": 6931778.249405717,
        "Time(s)": 720
    },
    {
        "Altitude(m)": 568634.2155629322,
        "Argument of Periapsis(deg)": 0.02544622900432029,
        "Eccentricity": 0.0,
        "Inclination(deg)": 53.0,
        "Latitude(deg)": -45.108373413019216,
        "Longitude(deg)": -4.26906077397661,
        "Mean Anomaly(deg)": -117.87772214035981,
        "RAAN(deg)": 229.96212978434448,
        "Satellite Name": "Starlink Shell 1 1024",
        "Satellite Number": 1024,
        "Semi-Major Axis(m)": 6931778.249405717,
        "Time(s)": 730
    },
    {
        "Altitude(m)": 568768.1971859238,
        "Argument of Periapsis(deg)": 0.02579480748383153,
        "Eccentricity": 0.0,
        "Inclination(deg)": 53.0,
        "Latitude(deg)": -45.435263073612106,
        "Longitude(deg)": -3.554820359426395,
        "Mean Anomaly(deg)": -117.2508909368031,
        "RAAN(deg)": 229.96161101426702,
        "Satellite Name": "Starlink Shell 1 1024",
        "Satellite Number": 1024,
        "Semi-Major Axis(m)": 6931778.249405717,
        "Time(s)": 740
    },
    {
        "Altitude(m)": 568899.9198880105,
        "Argument of Periapsis(deg)": 0.026143385963342765,
        "Eccentricity": 0.0,
        "Inclination(deg)": 53.0,
        "Latitude(deg)": -45.75707488899961,
        "Longitude(deg)": -2.831895246687498,
        "Mean Anomaly(deg)": -116.62405973324641,
        "RAAN(deg)": 229.96109224418953,
        "Satellite Name": "Starlink Shell 1 1024",
        "Satellite Number": 1024,
        "Semi-Major Axis(m)": 6931778.249405717,
        "Time(s)": 750
    }
]